NORAD_CAT_ID,OBJECT_NAME,OBJECT_TYPE,EPOCH,MEAN_MOTION,ECCENTRICITY,INCLINATION,RA_OF_ASC_NODE,ARG_OF_PERICENTER,MEAN_ANOMALY,BSTAR,MEAN_MOTION_DOT,MEAN_MOTION_DDOT,TLE_LINE0,TLE_LINE1,TLE_LINE2,SEMIMAJOR_AXIS,PERIOD,APOGEE,PERIGEE,DECAYED
53926.0,STARLINK-5014,PAYLOAD,2023-04-10 20:16:33,15.08848541,0.0001531,53.2174,44.6899,112.8516,247.2638,0.00068894,0.00010696,0.0,0 STARLINK-5014,1 53926U 22119AS  23100.84482937  .00010696  00000-0  68894-3 0  9991,2 53926  53.2174  44.6899 0001531 112.8516 247.2638 15.08848541 31306,6917.854,95.437,540.778,538.66,0.0
53926.0,STARLINK-5014,PAYLOAD,2023-04-11 05:48:51,15.08853375,0.0001213,53.2176,42.9053,104.7145,255.3982,0.00012861,1.76e-05,0.0,0 STARLINK-5014,1 53926U 22119AS  23101.24226492  .00001760  00000-0  12861-3 0  9993,2 53926  53.2176  42.9053 0001213 104.7145 255.3982 15.08853375 31365,6917.84,95.437,540.544,538.865,0.0
53926.0,STARLINK-5014,PAYLOAD,2023-04-12 02:28:53,15.08841214,0.000104,53.2177,39.0406,103.5297,256.5811,0.00014481,2.018e-05,0.0,0 STARLINK-5014,1 53926U 22119AS  23102.10339202  .00002018  00000-0  14481-3 0  9990,2 53926  53.2177  39.0406 0001040 103.5297 256.5811 15.08841214 31068,6917.877,95.437,540.461,539.022,0.0
53926.0,STARLINK-5014,PAYLOAD,2023-04-12 05:39:39,15.0884239,0.0001084,53.2183,38.4463,103.3368,256.7745,0.00016485,2.337e-05,0.0,0 STARLINK-5014,1 53926U 22119AS  23102.23587168  .00002337  00000-0  16485-3 0  9990,2 53926  53.2183  38.4463 0001084 103.3368 256.7745 15.08842390 31510,6917.873,95.437,540.488,538.988,0.0
53926.0,STARLINK-5014,PAYLOAD,2023-04-13 05:30:26,15.08848756,9.52e-05,53.2181,33.9856,99.4119,260.6981,0.00027738,4.131e-05,0.0,0 STARLINK-5014,1 53926U 22119AS  23103.22947009  .00004131  00000-0  27738-3 0  9991,2 53926  53.2181  33.9856 0000952  99.4119 260.6981 15.08848756 31660,6917.854,95.437,540.377,539.06,0.0
53926.0,STARLINK-5014,PAYLOAD,2023-04-14 05:21:12,15.08857223,0.0001067,53.2184,29.5293,113.2643,246.8461,-4.7092e-05,-1.038e-05,0.0,0 STARLINK-5014,1 53926U 22119AS  23104.22306326 -.00001038  00000-0 -47092-4 0  9994,2 53926  53.2184  29.5293 0001067 113.2643 246.8461 15.08857223 31819,6917.828,95.436,540.431,538.955,0.0
53926.0,STARLINK-5014,PAYLOAD,2023-04-15 03:36:37,15.08844149,0.0001056,53.2178,25.3615,85.3381,274.7732,0.00014433,2.01e-05,0.0,0 STARLINK-5014,1 53926U 22119AS  23105.15043312  .00002010  00000-0  14433-3 0  9991,2 53926  53.2178  25.3615 0001056  85.3381 274.7732 15.08844149 31522,6917.868,95.437,540.463,539.002,0.0
53926.0,STARLINK-5014,PAYLOAD,2023-04-16 05:02:47,15.08847562,0.0001194,53.2178,20.6036,89.4563,270.6566,0.00024262,3.576e-05,0.0,0 STARLINK-5014,1 53926U 22119AS  23106.21027327  .00003576  00000-0  24262-3 0  9996,2 53926  53.2178  20.6036 0001194  89.4563 270.6566 15.08847562 32115,6917.857,95.437,540.548,538.896,0.0
53926.0,STARLINK-5014,PAYLOAD,2023-04-17 03:18:11,15.08848076,0.0001046,53.2175,16.4402,107.4375,252.6731,0.00022025,3.22e-05,0.0,0 STARLINK-5014,1 53926U 22119AS  23107.13763281  .00003220  00000-0  22025-3 0  9995,2 53926  53.2175  16.4402 0001046 107.4375 252.6731 15.08848076 31822,6917.856,95.437,540.444,538.997,0.0
53926.0,STARLINK-5014,PAYLOAD,2023-04-17 17:36:40,15.08838773,0.0001097,53.2174,13.7657,89.8707,270.2411,-1.234e-05,-4.84e-06,0.0,0 STARLINK-5014,1 53926U 22119AS  23107.73379872 -.00000484  00000-0 -12340-4 0  9991,2 53926  53.2174  13.7657 0001097  89.8707 270.2411 15.08838773 31915,6917.884,95.438,540.508,538.99,0.0
53926.0,STARLINK-5014,PAYLOAD,2023-04-18 03:08:58,15.08845218,0.0001153,53.217,11.9819,88.8571,271.2553,0.0001848,2.655e-05,0.0,0 STARLINK-5014,1 53926U 22119AS  23108.13123732  .00002655  00000-0  18480-3 0  9998,2 53926  53.2170  11.9819 0001153  88.8571 271.2553 15.08845218 32407,6917.864,95.437,540.527,538.932,0.0
53926.0,STARLINK-5014,PAYLOAD,2023-04-18 23:49:00,15.08840347,0.0001295,53.218,8.1151,90.302,269.812,0.00010793,1.43e-05,0.0,0 STARLINK-5014,1 53926U 22119AS  23108.99236231  .00001430  00000-0  10793-3 0  9990,2 53926  53.2180   8.1151 0001295  90.3020 269.8120 15.08840347 32534,6917.879,95.438,540.64,538.848,0.0
53926.0,STARLINK-5014,PAYLOAD,2023-04-20 02:50:32,15.08853072,0.0001443,53.2181,3.0593,107.0682,253.0468,0.00030728,4.608e-05,0.0,0 STARLINK-5014,1 53926U 22119AS  23110.11843680  .00004608  00000-0  30728-3 0  9999,2 53926  53.2181   3.0593 0001443 107.0682 253.0468 15.08853072 32274,6917.84,95.437,540.704,538.707,0.0
53926.0,STARLINK-5014,PAYLOAD,2023-04-21 04:16:43,15.08847611,0.0001087,53.2165,358.3046,100.5524,259.5591,0.00019122,2.757e-05,0.0,0 STARLINK-5014,1 53926U 22119AS  23111.17828005  .00002757  00000-0  19122-3 0  9998,2 53926  53.2165 358.3046 0001087 100.5524 259.5591 15.08847611 32430,6917.857,95.437,540.474,538.97,0.0
53926.0,STARLINK-5014,PAYLOAD,2023-04-21 09:02:53,15.08832146,0.0001054,53.2164,357.4128,102.9753,257.1357,-0.00013972,-2.51e-05,0.0,0 STARLINK-5014,1 53926U 22119AS  23111.37700295 -.00002510  00000-0 -13972-3 0  9996,2 53926  53.2164 357.4128 0001054 102.9753 257.1357 15.08832146 32468,6917.904,95.438,540.499,539.04,0.0
53926.0,STARLINK-5014,PAYLOAD,2023-04-21 20:10:34,15.08844024,9.56e-05,53.2165,355.3314,94.8581,265.252,0.00022234,3.253e-05,0.0,0 STARLINK-5014,1 53926U 22119AS  23111.84068096  .00003253  00000-0  22234-3 0  9998,2 53926  53.2165 355.3314 0000956  94.8581 265.2520 15.08844024 32966,6917.868,95.437,540.394,539.072,0.0
53926.0,STARLINK-5014,PAYLOAD,2023-04-22 02:32:07,15.0885953,9.73e-05,53.2164,354.1419,104.0799,256.0301,0.0016752,0.00026488,0.0,0 STARLINK-5014,1 53926U 22119AS  23112.10564269  .00026488  00000-0  16752-2 0  9993,2 53926  53.2164 354.1419 0000973 104.0799 256.0301 15.08859530 32572,6917.821,95.436,540.359,539.013,0.0
53926.0,STARLINK-5014,PAYLOAD,2023-04-22 04:07:30,15.08864753,8.84e-05,53.2161,353.8449,101.9415,258.1677,0.0015775,0.00024924,0.0,0 STARLINK-5014,1 53926U 22119AS  23112.17188048  .00024924  00000-0  15775-2 0  9994,2 53926  53.2161 353.8449 0000884 101.9415 258.1677 15.08864753 33012,6917.805,95.436,540.281,539.058,0.0
53926.0,STARLINK-5014,PAYLOAD,2023-04-22 16:50:35,15.08847421,8.81e-05,53.2156,351.4657,96.1011,264.0081,0.00063471,9.83e-05,0.0,0 STARLINK-5014,1 53926U 22119AS  23112.70180192  .00009830  00000-0  63471-3 0  9991,2 53926  53.2156 351.4657 0000881  96.1011 264.0081 15.08847421 32663,6917.858,95.437,540.332,539.113,0.0
53926.0,STARLINK-5014,PAYLOAD,2023-04-22 20:01:21,15.08853434,8.64e-05,53.2157,350.8709,99.9547,260.1543,0.0006274,9.715e-05,0.0,0 STARLINK-5014,1 53926U 22119AS  23112.83428017  .00009715  00000-0  62740-3 0  9996,2 53926  53.2157 350.8709 0000864  99.9547 260.1543 15.08853434 33113,6917.839,95.437,540.302,539.107,0.0
53926.0,STARLINK-5014,PAYLOAD,2023-04-23 11:55:13,15.08837385,9.7e-05,53.2152,347.8973,86.4912,273.6191,0.00010505,1.384e-05,0.0,0 STARLINK-5014,1 53926U 22119AS  23113.49668287  .00001384  00000-0  10505-3 0  9990,2 53926  53.2152 347.8973 0000970  86.4912 273.6191 15.08837385 32789,6917.888,95.438,540.424,539.082,0.0
53926.0,STARLINK-5014,PAYLOAD,2023-04-23 21:27:32,15.08850078,9.86e-05,53.215,346.1132,89.3942,270.7163,0.0017423,0.00027557,0.0,0 STARLINK-5014,1 53926U 22119AS  23113.89412337  .00027557  00000-0  17423-2 0  9992,2 53926  53.2150 346.1132 0000986  89.3942 270.7163 15.08850078 33274,6917.85,95.437,540.397,539.032,0.0
53926.0,STARLINK-5014,PAYLOAD,2023-04-24 03:49:04,15.08915194,0.0001007,53.215,344.9232,91.9656,268.1452,0.0039869,0.0006387,0.0,0 STARLINK-5014,1 53926U 22119AS  23114.15907677  .00063870  00000-0  39869-2 0  9994,2 53926  53.2150 344.9232 0001007  91.9656 268.1452 15.08915194 32886,6917.651,95.433,540.212,538.819,0.0
53926.0,STARLINK-5014,PAYLOAD,2023-04-24 06:59:50,15.08891597,9.65e-05,53.2149,344.3285,81.0003,279.1098,0.0044346,0.00071102,0.0,0 STARLINK-5014,1 53926U 22119AS  23114.29156127  .00071102  00000-0  44346-2 0  9998,2 53926  53.2149 344.3285 0000965  81.0003 279.1098 15.08891597 32905,6917.723,95.434,540.255,538.92,0.0
53926.0,STARLINK-5014,PAYLOAD,2023-04-24 14:56:46,15.08884887,0.0001585,53.215,342.8417,46.0673,314.045,0.0028221,0.00044968,0.0,0 STARLINK-5014,1 53926U 22119AS  23114.62275752  .00044968  00000-0  28221-2 0  9995,2 53926  53.2150 342.8417 0001585  46.0673 314.0450 15.08884887 33388,6917.743,95.435,540.705,538.512,0.0
53926.0,STARLINK-5014,PAYLOAD,2023-04-25 05:15:14,15.08804237,0.000245,53.2149,340.1652,46.172,313.9474,-0.0035183,-0.00055797,0.0,0 STARLINK-5014,1 53926U 22119AS  23115.21891277 -.00055797  00000-0 -35183-2 0  9996,2 53926  53.2149 340.1652 0002450  46.1720 313.9474 15.08804237 33042,6917.99,95.44,541.55,538.16,0.0
53926.0,STARLINK-5014,PAYLOAD,2023-04-25 11:36:46,15.08782524,9.99e-05,53.215,338.9755,106.9476,253.1625,-0.0032304,-0.00051252,0.0,0 STARLINK-5014,1 53926U 22119AS  23115.48387562 -.00051252  00000-0 -32304-2 0  9996,2 53926  53.2150 338.9755 0000999 106.9476 253.1625 15.08782524 33083,6918.056,95.441,540.612,539.23,0.0
53926.0,STARLINK-5014,PAYLOAD,2023-04-25 13:12:10,15.0878315,0.0001083,53.2152,338.6781,107.9486,252.1625,-0.0013712,-0.0002201,0.0,0 STARLINK-5014,1 53926U 22119AS  23115.55012345 -.00022010  00000-0 -13712-2 0  9990,2 53926  53.2152 338.6781 0001083 107.9486 252.1625 15.08783150 33522,6918.054,95.441,540.668,539.17,0.0
53926.0,STARLINK-5014,PAYLOAD,2023-04-26 14:38:23,15.08829895,8.08e-05,53.2157,333.9201,132.9206,227.1854,0.0016861,0.00026641,0.0,0 STARLINK-5014,1 53926U 22119AS  23116.60999464  .00026641  00000-0  16861-2 0  9993,2 53926  53.2157 333.9201 0000808 132.9206 227.1854 15.08829895 33684,6917.911,95.438,540.335,539.217,0.0
53926.0,STARLINK-5014,PAYLOAD,2023-04-26 20:59:55,15.08859899,8.88e-05,53.2159,332.7314,129.6963,230.4108,0.0015843,0.0002503,0.0,0 STARLINK-5014,1 53926U 22119AS  23116.87495076  .00025030  00000-0  15843-2 0  9992,2 53926  53.2159 332.7314 0000888 129.6963 230.4108 15.08859899 33720,6917.82,95.436,540.299,539.07,0.0
